ORBCOMM FM20 [+]        
1 25416U 98046D   24072.48702752  .00001273  00000+0  49237-3 0  9995
2 25416  44.9932 203.8802 0001141 195.8130 164.2681 14.34965960337938
ORBCOMM FM16 [-]        
1 25417U 98046E   24071.85786503  .00001790  00000+0  66039-3 0  9995
2 25417  44.9934 203.0457 0004298 152.0024 208.1055 14.35852592337954
ORBCOMM FM15 [-]        
1 25418U 98046F   24072.49921410  .00001612  00000+0  60272-3 0  9991
2 25418  44.9963 203.9384 0003992 157.3067 202.7958 14.35593046338005
ORBCOMM FM14 [-]        
1 25419U 98046G   24072.48152436  .00001854  00000+0  68406-3 0  9990
2 25419  44.9948 203.2115 0002704 156.8548 310.8254 14.35739380338016
ORBCOMM FM13 [+]        
1 25420U 98046H   24071.50339693  .00001550  00000+0  58760-3 0  9991
2 25420  44.9964 212.3808 0004621 129.1907 230.9351 14.35072617337841
ORBCOMM FM21 [-]        
1 25475U 98053A   24072.63550568  .00001003  00000+0  39796-3 0  9991
2 25475  45.0086 291.2839 0000953  70.9019 289.1932 14.35040538331223
ORBCOMM FM22 [-]        
1 25476U 98053B   24072.63369047  .00001190  00000+0  45854-3 0  9991
2 25476  45.0079 288.8072 0002578  68.2347 291.8774 14.35515064331243
ORBCOMM FM23 [-]        
1 25477U 98053C   24072.03869668  .00001156  00000+0  45076-3 0  9998
2 25477  45.0090 296.5428 0001971  59.1359 300.9681 14.35067665331266
